{"fetched_at":"2026-03-29T16:36:15Z","count":15609,"tles":[{"name":"STARLINK-2103","line1":"1 47383U 21005AL  26087.92794546 -.00087362  00000+0 -29495-2 0  9990","line2":"2 47383  53.1590 284.8515 0001572  83.8805 276.2375 15.30445442286662","category":"Starlink"}]}